{"spkid": "54202993", "covariance": {"epoch": "2459511.5", "labels": ["e", "q", "tp", "node", "peri", "i"], "data": [["4.314076202417826E-13", "-4.400826370754617E-13", "3.709418499074147E-11", "-5.748816017056691E-11", "5.170420651719592E-11", "-1.882227773158125E-12"], ["-4.400826370754617E-13", "4.495291513484948E-13", "-3.950309757215761E-11", "5.634815953693124E-11", "-5.113401040363395E-11", "1.839585318119042E-12"], ["3.709418499074147E-11", "-3.950309757215761E-11", "9.038508408535506E-9", "4.210175323067752E-9", "-2.169131072490241E-9", "2.340996233139483E-10"], ["-5.748816017056691E-11", "5.634815953693124E-11", "4.210175323067752E-9", "3.843058083352206E-8", "-3.350819926972544E-8", "2.284766679216319E-9"], ["5.170420651719592E-11", "-5.113401040363395E-11", "-2.169131072490241E-9", "-3.350819926972544E-8", "2.978623936302354E-8", "-2.069779960980518E-9"], ["-1.882227773158125E-12", "1.839585318119042E-12", "2.340996233139483E-10", "2.284766679216319E-9", "-2.069779960980518E-9", "1.721756295640831E-10"]], "elements": [{"units": null, "value": ".4585346057951015", "title": "eccentricity", "sigma": 6.56816275865468e-07, "name": "e", "label": "e"}, {"value": ".4866545347170574", "title": "perihelion distance", "units": "au", "name": "q", "sigma": 6.70469351535545e-07, "label": "q"}, {"title": "time of perihelion passage", "value": "2459387.923313592713", "units": "TDB", "name": "tp", "sigma": 9.50710703028819e-05, "label": "tp"}, {"label": "node", "name": "om", "sigma": 0.000196037192475107, "title": "longitude of the ascending node", "value": "151.2997420241015", "units": "deg"}, {"name": "w", "sigma": 0.000172586903799285, "units": "deg", "title": "argument of perihelion", "value": "73.94017495145623", "label": "peri"}, {"units": "deg", "title": "inclination", "value": "6.744541104223439", "name": "i", "sigma": 1.31215711545563e-05, "label": "i"}]}, "elements": [{"name": "e", "sigma": "6.5729E-7", "title": "eccentricity", "value": ".4585245953380626", "units": null, "label": "e"}, {"units": "au", "value": ".8988575897490777", "title": "semi-major axis", "name": "a", "sigma": "1.5254E-7", "label": "a"}, {"units": "au", "value": ".4867092771428356", "title": "perihelion distance", "name": "q", "sigma": "6.7015E-7", "label": "q"}, {"label": "i", "name": "i", "sigma": "1.3071E-5", "units": "deg", "value": "6.749552909613745", "title": "inclination; angle with respect to x-y ecliptic plane"}, {"name": "om", "sigma": ".00019627", "value": "151.2025086000016", "title": "longitude of the ascending node", "units": "deg", "label": "node"}, {"sigma": ".0001728", "name": "w", "value": "74.03076300922834", "title": "argument of perihelion", "units": "deg", "label": "peri"}, {"label": "M", "sigma": ".00045658", "name": "ma", "title": "mean anomaly", "value": "296.4728623019215", "units": "deg"}, {"label": "tp", "sigma": ".0004086", "name": "tp", "units": "TDB", "value": "2461255.427717054713", "title": "time of perihelion passage"}, {"label": "period", "name": "per", "sigma": "7.9233E-5", "title": "sidereal orbital period", "value": "311.2682053089699", "units": "d"}, {"title": "mean motion", "value": "1.156558857794866", "units": "deg/d", "name": "n", "sigma": "2.944E-7", "label": "n"}, {"label": "Q", "value": "1.31100590235532", "title": "aphelion distance", "units": "au", "name": "ad", "sigma": "2.2248E-7"}], "epoch": "2461200.5"}